     2              NAVIGATION DATA                         RINEX VERSION / TYPE
CCRINEXN V1.6.0 UX  CDDIS               29-JAN-16 23:39     PGM / RUN BY / DATE 
IGS BROADCAST EPHEMERIS FILE                                COMMENT             
    0.1211D-07 -0.7451D-08 -0.5960D-07  0.5960D-07          ION ALPHA           
    0.1147D+06 -0.1311D+06 -0.2621D+06  0.7209D+06          ION BETA            
    0.558793544769D-08 0.133226762955D-13   147456     1882 DELTA-UTC: A0,A1,T,W
    17                                                      LEAP SECONDS        
                                                            END OF HEADER       
18 16  1 29 10  0  0.0 0.477941241115D-03 0.386535248253D-11 0.000000000000D+00
    0.106000000000D+03-0.190625000000D+01 0.537272359935D-08 0.393561400224D+00
    0.596046447754D-07 0.165580502944D-01 0.104792416096D-04 0.515366082192D+04
    0.468000000000D+06-0.262632966042D-06 0.981263512010D+00 0.540167093277D-07
    0.924964929599D+00 0.163718750000D+03-0.191589362829D+01-0.866286065104D-08
   -0.921466930537D-10 0.100000000000D+01 0.188100000000D+04 0.000000000000D+00
    0.200000000000D+01 0.000000000000D+00-0.111758708954D-07 0.106000000000D+03
    0.460740000000D+06 0.400000000000D+01 0.000000000000D+00 0.000000000000D+00
19 16  1 29 10  0  0.0-0.524649862200D-03-0.227373675443D-12 0.000000000000D+00
    0.590000000000D+02 0.129687500000D+02 0.456304727336D-08 0.231141193307D+01
    0.536441802978D-06 0.112557635875D-01 0.490248203278D-05 0.515519081688D+04
    0.468000000000D+06-0.163912773132D-06-0.990025223896D+00-0.173225998878D-06
    0.972060889781D+00 0.292906250000D+03 0.675469672755D+00-0.808890820991D-08
    0.255724941223D-09 0.100000000000D+01 0.188100000000D+04 0.000000000000D+00
    0.200000000000D+01 0.000000000000D+00-0.153668224812D-07 0.590000000000D+02
    0.460830000000D+06 0.000000000000D+00 0.000000000000D+00 0.000000000000D+00
20 16  1 29 10  0  0.0 0.389079097658D-03 0.261479726760D-11 0.000000000000D+00
    0.260000000000D+02-0.119687500000D+02 0.511235587197D-08-0.190531575628D+01
   -0.566244125366D-06 0.493987964001D-02 0.107903033495D-04 0.515369488907D+04
    0.468000000000D+06 0.894069671631D-07 0.929278662472D+00 0.149011611938D-07
    0.926248932797D+00 0.151531250000D+03 0.132216420332D+01-0.823355694735D-08
   -0.121433627043D-10 0.100000000000D+01 0.188100000000D+04 0.000000000000D+00
    0.200000000000D+01 0.000000000000D+00-0.838190317154D-08 0.260000000000D+02
    0.460740000000D+06 0.400000000000D+01 0.000000000000D+00 0.000000000000D+00
21 16  1 29 10  0  0.0-0.507732387632D-03-0.193267624127D-11 0.000000000000D+00
    0.880000000000D+02-0.701562500000D+02 0.543879785653D-08 0.127274063368D+01
   -0.392645597458D-05 0.230359130073D-01 0.684149563313D-05 0.515367982864D+04
    0.468000000000D+06-0.447034835815D-06-0.607425003632D-01-0.275671482086D-06
    0.935902130869D+00 0.245687500000D+03-0.183660173338D+01-0.879715233992D-08
   -0.232152533308D-09 0.100000000000D+01 0.188100000000D+04 0.000000000000D+00
    0.200000000000D+01 0.000000000000D+00-0.116415321827D-07 0.880000000000D+02
    0.460740000000D+06 0.400000000000D+01 0.000000000000D+00 0.000000000000D+00
22 16  1 29 10  0  0.0 0.405034516007D-03-0.534328137292D-11 0.000000000000D+00
    0.150000000000D+02 0.718750000000D+00 0.530914971882D-08-0.634008997363D+00
   -0.149011611938D-07 0.758655660320D-02 0.990927219391D-05 0.515510183525D+04
    0.468000000000D+06-0.931322574615D-07 0.982046841736D+00 0.111758708954D-06
    0.922813389648D+00 0.166593750000D+03-0.202509258217D+01-0.849356807692D-08
   -0.203579908492D-10 0.000000000000D+00 0.188100000000D+04 0.000000000000D+00
    0.200000000000D+01 0.000000000000D+00-0.176951289177D-07 0.150000000000D+02
    0.460800000000D+06 0.400000000000D+01 0.000000000000D+00 0.000000000000D+00
23 16  1 29 10  0  0.0-0.157369766384D-03-0.193267624127D-11 0.000000000000D+00
    0.800000000000D+01 0.479062500000D+02 0.498842211982D-08-0.243068502507D+01
    0.231154263020D-05 0.104358242825D-01 0.568851828575D-05 0.515373231506D+04
    0.468000000000D+06 0.167638063431D-07 0.205739706835D+01-0.931322574615D-07
    0.946338102758D+00 0.262718750000D+03-0.261466241171D+01-0.820998469209D-08
    0.207865807900D-09 0.100000000000D+01 0.188100000000D+04 0.000000000000D+00
    0.200000000000D+01 0.000000000000D+00-0.200234353542D-07 0.800000000000D+01
    0.460830000000D+06 0.000000000000D+00 0.000000000000D+00 0.000000000000D+00
24 16  1 29 10  0  0.0-0.115144066513D-04-0.682121026330D-12 0.000000000000D+00
    0.400000000000D+02-0.203437500000D+02 0.477127017113D-08-0.304560641593D+01
   -0.100396573544D-05 0.418468785938D-02 0.658817589283D-05 0.515363655281D+04
    0.468000000000D+06-0.149011611938D-07 0.308354126711D+01 0.372529029846D-08
    0.951052008094D+00 0.248906250000D+03 0.349089066584D+00-0.825391523727D-08
   -0.256082095419D-09 0.100000000000D+01 0.188100000000D+04 0.000000000000D+00
    0.200000000000D+01 0.000000000000D+00 0.232830643654D-08 0.400000000000D+02
    0.460818000000D+06 0.400000000000D+01 0.000000000000D+00 0.000000000000D+00
25 16  1 29 10  0  0.0-0.107683707029D-03-0.659383658785D-11 0.000000000000D+00
    0.270000000000D+02 0.162812500000D+02 0.392873511501D-08 0.129170031531D+01
    0.780448317528D-06 0.504238822032D-02 0.994093716145D-05 0.515357142639D+04
    0.468000000000D+06-0.242143869400D-07-0.213088440423D+01 0.540167093277D-07
    0.978632303164D+00 0.195437500000D+03 0.694226220897D+00-0.786997045310D-08
    0.503592410828D-10 0.100000000000D+01 0.188100000000D+04 0.000000000000D+00
    0.200000000000D+01 0.000000000000D+00 0.558793544769D-08 0.270000000000D+02
    0.468000000000D+06 0.000000000000D+00 0.000000000000D+00 0.000000000000D+00
26 16  1 29 10  0  0.0-0.231812242419D-03-0.162572177942D-10 0.000000000000D+00
    0.690000000000D+02 0.175312500000D+02 0.432232289924D-08 0.793618819421D+00
    0.929459929466D-06 0.772188184783D-03 0.906921923161D-05 0.515370599174D+04
    0.468000000000D+06 0.130385160446D-07-0.213776785219D+01-0.745058059692D-08
    0.960661264495D+00 0.204093750000D+03-0.177074236104D+00-0.799033282943D-08
    0.860750139413D-10 0.000000000000D+00 0.188100000000D+04 0.000000000000D+00
    0.200000000000D+01 0.000000000000D+00 0.698491930962D-08 0.690000000000D+02
    0.460800000000D+06 0.400000000000D+01 0.000000000000D+00 0.000000000000D+00
27 16  1 29 10  0  0.0 0.577964819968D-04 0.352429196937D-11 0.000000000000D+00
    0.420000000000D+02 0.193125000000D+02 0.456197573889D-08-0.113106577181D+01
    0.946223735809D-06 0.309848692268D-02 0.520423054695D-05 0.515362961578D+04
    0.468000000000D+06 0.186264514923D-07-0.108833066216D+01-0.372529029846D-07
    0.969876693109D+00 0.283718750000D+03 0.206526127122D+00-0.820391315448D-08
    0.268225458381D-09 0.000000000000D+00 0.188100000000D+04 0.000000000000D+00
    0.200000000000D+01 0.000000000000D+00 0.139698386192D-08 0.420000000000D+02
    0.460800000000D+06 0.400000000000D+01 0.000000000000D+00 0.000000000000D+00
28 16  1 29 10  0  0.0 0.498678069562D-03 0.261479726760D-11 0.000000000000D+00
    0.870000000000D+02 0.298125000000D+02 0.380372977560D-08-0.415091822446D+00
    0.152736902237D-05 0.199920870364D-01 0.104773789644D-04 0.515362861443D+04
    0.468000000000D+06-0.247731804848D-06-0.205754036411D+01 0.154599547386D-06
    0.989463450187D+00 0.199593750000D+03-0.162672755000D+01-0.803962052487D-08
    0.234295471913D-09 0.100000000000D+01 0.188100000000D+04 0.000000000000D+00
    0.280000000000D+01 0.000000000000D+00-0.107102096081D-07 0.870000000000D+02
    0.460830000000D+06 0.000000000000D+00 0.000000000000D+00 0.000000000000D+00
29 16  1 29 10  0  0.0 0.652994494885D-03 0.909494701773D-12 0.000000000000D+00
    0.460000000000D+02 0.129375000000D+02 0.450804492102D-08 0.142394532721D+01
    0.637024641037D-06 0.101294554770D-02 0.526197254658D-05 0.515362080383D+04
    0.468000000000D+06 0.130385160446D-07-0.102948981633D+01-0.372529029846D-07
    0.975891567104D+00 0.289500000000D+03-0.589234755467D+00-0.814212486647D-08
    0.237867050975D-09 0.100000000000D+01 0.188100000000D+04 0.000000000000D+00
    0.200000000000D+01 0.000000000000D+00-0.102445483208D-07 0.460000000000D+02
    0.463002000000D+06 0.400000000000D+01 0.000000000000D+00 0.000000000000D+00
30 16  1 29 10  0  0.0 0.901417806745D-04 0.454747350886D-11 0.000000000000D+00
    0.980000000000D+02-0.277187500000D+02 0.473162575787D-08 0.232711016758D+01
   -0.140629708767D-05 0.166676391382D-02 0.700354576111D-05 0.515364314842D+04
    0.468000000000D+06-0.540167093277D-07-0.310874016853D+01 0.484287738800D-07
    0.953755824490D+00 0.240312500000D+03 0.304858341911D+01-0.821748535884D-08
   -0.326085020097D-09 0.100000000000D+01 0.188100000000D+04 0.000000000000D+00
    0.280000000000D+01 0.000000000000D+00 0.325962901115D-08 0.980000000000D+02
    0.460830000000D+06 0.000000000000D+00 0.000000000000D+00 0.000000000000D+00
31 16  1 29 10  0  0.0 0.284981448203D-03-0.170530256582D-11 0.000000000000D+00
    0.800000000000D+02-0.191562500000D+02 0.425267714107D-08 0.224001034826D+01
   -0.841915607452D-06 0.834821211174D-02 0.680610537529D-05 0.515368442154D+04
    0.468000000000D+06 0.372529029846D-07 0.313743859091D+01 0.745058059692D-07
    0.972811848055D+00 0.255437500000D+03-0.442573983509D+00-0.791425823205D-08
   -0.358943522867D-09 0.000000000000D+00 0.188100000000D+04 0.000000000000D+00
    0.200000000000D+01 0.000000000000D+00-0.135041773319D-07 0.800000000000D+02
    0.460800000000D+06 0.400000000000D+01 0.000000000000D+00 0.000000000000D+00
